OBJECT_NAME,OBJECT_ID,EPOCH,MEAN_MOTION,ECCENTRICITY,INCLINATION,RA_OF_ASC_NODE,ARG_OF_PERICENTER,MEAN_ANOMALY,EPHEMERIS_TYPE,CLASSIFICATION_TYPE,NORAD_CAT_ID,ELEMENT_SET_NO,REV_AT_EPOCH,BSTAR,MEAN_MOTION_DOT,MEAN_MOTION_DDOT
COSMOS 2058,1990-010A,2026-06-09T12:35:41.512128,15.11960637,.00101774,82.4660,316.9124,26.9367,333.2389,0,U,20465,999,95611,.17958292E-3,.3111E-4,0
SL-14 R/B,1990-010B,2026-06-09T11:30:16.152768,14.83641344,.00197777,82.5016,181.1837,2.0835,358.0459,0,U,20466,999,94209,.38623807E-4,.343E-5,0
SL-14 R/B,1990-018B,2026-06-09T10:48:39.429504,14.82211122,.00169612,82.5205,137.3390,145.5918,214.6398,0,U,20511,999,93617,.43098891E-4,.368E-5,0
HST,1990-037B,2026-06-09T06:06:10.692288,15.30659901,.0001992,28.4711,134.7882,63.4353,296.6447,0,U,20580,999,78735,.15014E-3,.481E-4,0
SL-16 R/B,1990-046B,2026-06-09T05:49:39.656640,14.15022087,.0014001,70.9985,105.6321,173.6796,186.4506,0,U,20625,999,86134,.18279E-3,.307E-5,0
COSMOS 2084,1990-055A,2026-06-09T08:37:58.459296,15.06083976,.0005491,62.7911,22.8069,264.4956,95.5519,0,U,20663,999,95012,.1367966E-3,.1807E-4,0
SL-6 R/B(2),1990-055D,2026-06-09T12:52:07.874400,15.03977649,.00393778,62.7827,301.4110,4.1163,356.0252,0,U,20666,999,95200,.12725783E-3,.1587E-4,0
SL-8 R/B,1990-078B,2026-06-09T11:36:15.364224,14.92020167,.03526381,82.9013,168.6031,64.3906,299.3308,0,U,20775,999,82297,.46348983E-3,.16473E-3,0
SL-8 R/B,1991-006B,2026-06-09T09:01:45.142752,13.77505353,.00233479,82.9421,101.8442,135.3962,346.8420,0,U,21088,999,77669,.2882928E-4,.44E-6,0
OKEAN-3,1991-039A,2026-06-09T11:51:37.688544,15.05291461,.00145631,82.5161,247.8410,25.2650,334.9286,0,U,21397,999,87884,.12062256E-3,.1756E-4,0
COSMOS 2151,1991-042A,2026-06-09T12:34:17.681664,15.00416186,.00137661,82.4961,355.0773,106.9366,253.3369,0,U,21422,999,87696,.99509863E-4,.128E-4,0
SL-14 R/B,1991-042B,2026-06-09T09:18:29.680992,14.81897503,.00156518,82.4922,134.2096,302.9590,57.0119,0,U,21423,999,86665,.42485724E-4,.36E-5,0
ERS-1,1991-050A,2026-06-09T12:27:19.706976,14.39512349,.00307639,98.7798,181.0295,290.6388,69.1501,0,U,21574,999,82894,.94320265E-4,.249E-5,0
ARIANE 40 R/B,1991-050F,2026-06-09T10:06:42.046272,14.42952461,.0003923,98.1878,209.1404,138.1097,222.0395,0,U,21610,999,83222,.85639737E-4,.245E-5,0
INTERCOSMOS 25,1991-086A,2026-06-09T12:26:48.238368,12.12186950,.14842941,82.6053,254.4498,278.9524,64.6952,0,U,21819,999,50781,.96088819E-4,.482E-5,0
SL-8 R/B,1992-008B,2026-06-09T12:01:20.506656,13.75974804,.00334365,82.9265,199.5023,236.8225,235.5017,0,U,21876,999,72204,.8173098E-4,.94E-6,0
SL-8 R/B,1992-020B,2026-06-09T14:03:32.199840,13.75548116,.0030159,82.9305,85.5032,43.1924,136.0800,0,U,21938,999,71376,.31892671E-4,.46E-6,0
USA 81,1992-023A,2026-06-09T12:29:57.202944,14.32396151,.00027621,85.0077,78.4319,91.5526,268.5983,0,U,21949,999,10793,.493804E-4,.153E-5,0
COSMOS 2219,1992-076A,2026-06-09T11:31:30.334080,14.14095701,.0016237,71.0574,186.1837,56.7453,303.5223,0,U,22219,999,73135,.40313436E-4,.3E-6,0
SL-16 R/B,1992-076B,2026-06-09T13:08:21.217920,14.16871654,.00145039,71.0006,354.8757,308.6097,118.0218,0,U,22220,999,73484,-.76711542E-4,-.202E-5,0
COSMOS 2221,1992-080A,2026-06-09T12:23:53.693088,14.96513983,.00127362,82.5033,191.1137,240.4280,119.5673,0,U,22236,999,79452,.11110891E-3,.129E-4,0
SL-16 R/B,1992-093B,2026-06-09T11:15:04.764096,14.15464528,.00043793,71.0200,171.5947,199.8381,160.2572,0,U,22285,999,72614,-.58882986E-4,-.163E-5,0
COSMOS 2228,1992-094A,2026-06-09T11:17:41.834976,14.97558560,.00176965,82.5169,149.4342,358.9457,1.1725,0,U,22286,999,78979,.16034312E-3,.1903E-4,0
SL-16 R/B,1993-016B,2026-06-09T07:21:39.759552,14.15309272,.0010712,71.0080,22.7597,194.9068,165.1741,0,U,22566,999,71513,.10149531E-3,.15E-5,0
COSMOS 2242,1993-024A,2026-06-09T11:50:30.230880,14.96880529,.00161265,82.5179,178.9037,2.7229,357.4078,0,U,22626,999,79412,.12733537E-3,.149E-4,0
SL-16 R/B,1993-059B,2026-06-09T10:39:00.306720,14.17245072,.00150228,70.9883,177.6336,67.5249,292.7464,0,U,22803,999,69253,.1560834E-3,.268E-5,0
ARIANE 40 R/B,1993-061H,2026-06-09T02:31:39.794016,14.32904458,.00109783,98.4819,227.1301,20.2194,339.9423,0,U,22830,999,70719,.7466374E-4,.161E-5,0
COSMOS 2278,1994-023A,2026-06-09T12:54:54.850176,14.14393915,.00105904,71.0543,342.9297,251.9247,108.0722,0,U,23087,999,65779,.20879774E-3,.353E-5,0
SL-16 R/B,1994-023B,2026-06-09T13:02:21.177024,14.15020148,.00032622,70.9995,237.9840,194.4124,165.6906,0,U,23088,999,65908,.14559307E-3,.234E-5,0
SL-16 R/B,1994-074B,2026-06-09T12:25:22.214208,14.79495792,.00051248,97.6994,187.5579,285.9819,202.7354,0,U,23343,999,70082,.56932283E-4,.376E-5,0
